{"fetched_at":"2026-05-03T06:27:58Z","count":17151,"tles":[{"name":"STARLINK-37453","line1":"1 68862U 26094Z   26122.41670139 -.01687558  88169-3 -30514-2 0  9997","line2":"2 68862  97.2810 136.0820 0001189  98.5619 148.7217 16.01682780  2007","category":"Starlink"}]}