{
  "norad_id": 68862,
  "name": "STARLINK-37453",
  "history": [
    {
      "epoch": "2026-05-02T10:00:03.000096Z",
      "apogee_km": 270.5487255781936,
      "perigee_km": 268.96785607803486,
      "latitude_deg": -66.39620717162937,
      "longitude_deg": -71.16770986327427,
      "height_km": 295.651427815454,
      "semi_major_axis_km": 6647.895290828114,
      "eccentricity": 0.0001189,
      "inclination_deg": 97.281,
      "raan_deg": 136.082,
      "arg_perigee_deg": 98.5619,
      "mean_anomaly_deg": 148.7217,
      "mean_motion_rev_day": 16.0168278
    }
  ]
}